NORAD_CAT_ID,OBJECT_NAME,OBJECT_TYPE,EPOCH,MEAN_MOTION,ECCENTRICITY,INCLINATION,RA_OF_ASC_NODE,ARG_OF_PERICENTER,MEAN_ANOMALY,BSTAR,MEAN_MOTION_DOT,MEAN_MOTION_DDOT,TLE_LINE0,TLE_LINE1,TLE_LINE2,SEMIMAJOR_AXIS,PERIOD,APOGEE,PERIGEE,DECAYED
53866.0,STARLINK-4762,PAYLOAD,2023-07-01 18:36:09,15.08836276,0.0001013,53.219,352.3201,96.5584,263.5523,5.5849e-05,6.01e-06,0.0,0 STARLINK-4762,1 53866U 22114BA  23182.77511514  .00000601  00000-0  55849-4 0  9997,2 53866  53.2190 352.3201 0001013  96.5584 263.5523 15.08836276 44615,6917.892,95.438,540.458,539.056,0.0
53866.0,STARLINK-4762,PAYLOAD,2023-07-02 23:13:05,15.08847684,9.44e-05,53.2179,346.9652,86.9258,273.1842,9.022e-05,1.149e-05,0.0,0 STARLINK-4762,1 53866U 22114BA  23183.96742835  .00001149  00000-0  90220-4 0  9991,2 53866  53.2179 346.9652 0000944  86.9258 273.1842 15.08847684 44799,6917.857,95.437,540.375,539.069,0.0
53866.0,STARLINK-4762,PAYLOAD,2023-07-03 19:53:06,15.08844777,9.56e-05,53.2178,343.0992,82.4552,277.6549,0.00010294,1.351e-05,0.0,0 STARLINK-4762,1 53866U 22114BA  23184.82855176  .00001351  00000-0  10294-3 0  9997,2 53866  53.2178 343.0992 0000956  82.4552 277.6549 15.08844777 44922,6917.866,95.437,540.392,539.069,0.0
53866.0,STARLINK-4762,PAYLOAD,2023-07-04 10:11:35,15.08838192,9.77e-05,53.2176,340.4233,82.6048,277.5055,9.4167e-05,1.211e-05,0.0,0 STARLINK-4762,1 53866U 22114BA  23185.42471659  .00001211  00000-0  94167-4 0  9991,2 53866  53.2176 340.4233 0000977  82.6048 277.5055 15.08838192 45010,6917.886,95.438,540.427,539.075,0.0
53866.0,STARLINK-4762,PAYLOAD,2023-07-04 19:43:53,15.0884845,9.37e-05,53.217,338.6394,87.034,273.076,0.00016602,2.356e-05,0.0,0 STARLINK-4762,1 53866U 22114BA  23185.82215087  .00002356  00000-0  16602-3 0  9994,2 53866  53.2170 338.6394 0000937  87.0340 273.0760 15.08848450 45079,6917.855,95.437,540.368,539.071,0.0
53866.0,STARLINK-4762,PAYLOAD,2023-07-05 13:13:08,15.08837748,0.0001069,53.2172,335.3691,84.5359,275.5755,5.0397e-05,5.14e-06,0.0,0 STARLINK-4762,1 53866U 22114BA  23186.55079727  .00000514  00000-0  50397-4 0  9998,2 53866  53.2172 335.3691 0001069  84.5359 275.5755 15.08837748 45185,6917.887,95.438,540.492,539.013,0.0
53866.0,STARLINK-4762,PAYLOAD,2023-07-06 16:14:41,15.0884605,9.35e-05,53.2176,330.3124,95.0861,265.0238,8.4216e-05,1.053e-05,0.0,0 STARLINK-4762,1 53866U 22114BA  23187.67687278  .00001053  00000-0  84216-4 0  9994,2 53866  53.2176 330.3124 0000935  95.0861 265.0238 15.08846050 45356,6917.862,95.437,540.374,539.08,0.0
53866.0,STARLINK-4762,PAYLOAD,2023-07-07 09:43:56,15.08841996,0.0001026,53.2174,327.0421,94.5339,265.577,9.8255e-05,1.276e-05,0.0,0 STARLINK-4762,1 53866U 22114BA  23188.40551557  .00001276  00000-0  98255-4 0  9991,2 53866  53.2174 327.0421 0001026  94.5339 265.5770 15.08841996 45465,6917.874,95.437,540.449,539.03,0.0
53866.0,STARLINK-4762,PAYLOAD,2023-07-08 17:31:38,15.0884681,9.33e-05,53.2169,321.0953,99.9091,260.2007,0.00011117,1.482e-05,0.0,0 STARLINK-4762,1 53866U 22114BA  23189.73031132  .00001482  00000-0  11117-3 0  9990,2 53866  53.2169 321.0953 0000933  99.9091 260.2007 15.08846810 45660,6917.86,95.437,540.37,539.079,0.0
53866.0,STARLINK-4762,PAYLOAD,2023-07-09 12:36:17,15.08830375,0.0001149,53.2193,317.5302,114.1043,246.007,-6.0818e-06,-3.85e-06,0.0,0 STARLINK-4762,1 53866U 22114BA  23190.52520611 -.00000385  00000-0 -60818-5 0  9991,2 53866  53.2193 317.5302 0001149 114.1043 246.0070 15.08830375 45786,6917.91,95.438,540.57,538.98,0.0
53866.0,STARLINK-4762,PAYLOAD,2023-07-10 17:13:13,15.08845025,0.0001,53.2185,312.1775,106.6841,253.4261,0.00011681,1.572e-05,0.0,0 STARLINK-4762,1 53866U 22114BA  23191.71751652  .00001572  00000-0  11681-3 0  9993,2 53866  53.2185 312.1775 0001000 106.6841 253.4261 15.08845025 45962,6917.865,95.437,540.422,539.038,0.0
53866.0,STARLINK-4762,PAYLOAD,2023-07-11 07:31:41,15.08837779,9.98e-05,53.2176,309.497,85.0872,275.0234,0.00021798,3.183e-05,0.0,0 STARLINK-4762,1 53866U 22114BA  23192.31368009  .00003183  00000-0  21798-3 0  9990,2 53866  53.2176 309.4970 0000998  85.0872 275.0234 15.08837779 46055,6917.887,95.438,540.443,539.062,0.0
53866.0,STARLINK-4762,PAYLOAD,2023-07-11 13:53:14,15.08847667,9.66e-05,53.2162,308.3083,80.4871,279.623,0.00022837,3.349e-05,0.0,0 STARLINK-4762,1 53866U 22114BA  23192.57863575  .00003349  00000-0  22837-3 0  9995,2 53866  53.2162 308.3083 0000966  80.4871 279.6230 15.08847667 46093,6917.857,95.437,540.39,539.054,0.0
53866.0,STARLINK-4762,PAYLOAD,2023-07-12 16:54:47,15.08841568,0.0001272,53.2173,303.2529,78.2794,281.8341,-2.8243e-06,-3.33e-06,0.0,0 STARLINK-4762,1 53866U 22114BA  23193.70471834 -.00000333  00000-0 -28243-5 0  9995,2 53866  53.2173 303.2529 0001272  78.2794 281.8341 15.08841568 46265,6917.876,95.437,540.621,538.861,0.0
53866.0,STARLINK-4762,PAYLOAD,2023-07-14 10:14:49,15.0884065,0.0001116,53.2173,295.5204,91.0312,269.0808,0.00014123,1.961e-05,0.0,0 STARLINK-4762,1 53866U 22114BA  23195.42696037  .00001961  00000-0  14123-3 0  9996,2 53866  53.2173 295.5204 0001116  91.0312 269.0808 15.08840650 46520,6917.878,95.438,540.515,538.971,0.0
53866.0,STARLINK-4762,PAYLOAD,2023-07-15 11:40:59,15.08842843,0.0001156,53.2168,290.7625,91.0952,269.0172,0.00017043,2.426e-05,0.0,0 STARLINK-4762,1 53866U 22114BA  23196.48680201  .00002426  00000-0  17043-3 0  9990,2 53866  53.2168 290.7625 0001156  91.0952 269.0172 15.08842843 46689,6917.872,95.437,540.536,538.937,0.0
53866.0,STARLINK-4762,PAYLOAD,2023-07-15 22:48:41,15.08835941,0.0001247,53.2172,288.6783,90.6328,269.4806,3.5584e-05,2.78e-06,0.0,0 STARLINK-4762,1 53866U 22114BA  23196.95048532  .00000278  00000-0  35584-4 0  9991,2 53866  53.2172 288.6783 0001247  90.6328 269.4806 15.08835941 46755,6917.893,95.438,540.62,538.895,0.0
53866.0,STARLINK-4762,PAYLOAD,2023-07-17 01:50:15,15.08836495,0.000115,53.2169,283.6273,88.4422,271.6702,7.4852e-05,9.04e-06,0.0,0 STARLINK-4762,1 53866U 22114BA  23198.07657121  .00000904  00000-0  74852-4 0  9993,2 53866  53.2169 283.6273 0001150  88.4422 271.6702 15.08836495 46927,6917.891,95.438,540.552,538.961,0.0
53866.0,STARLINK-4762,PAYLOAD,2023-07-17 11:22:34,15.08844469,0.000121,53.2171,281.8434,101.0476,259.0652,0.0001184,1.597e-05,0.0,0 STARLINK-4762,1 53866U 22114BA  23198.47400586  .00001597  00000-0  11840-3 0  9994,2 53866  53.2171 281.8434 0001210 101.0476 259.0652 15.08844469 46987,6917.867,95.437,540.569,538.895,0.0
53866.0,STARLINK-4762,PAYLOAD,2023-07-18 11:13:21,15.08843437,0.0001238,53.2159,277.3806,86.5057,273.6077,0.00019502,2.818e-05,0.0,0 STARLINK-4762,1 53866U 22114BA  23199.46760793  .00002818  00000-0  19502-3 0  9993,2 53866  53.2159 277.3806 0001238  86.5057 273.6077 15.08843437 47133,6917.87,95.437,540.591,538.878,0.0
53866.0,STARLINK-4762,PAYLOAD,2023-07-19 09:28:45,15.08836635,0.000132,53.2163,273.2218,87.8566,272.2578,-4.1883e-07,-2.95e-06,0.0,0 STARLINK-4762,1 53866U 22114BA  23200.39497356 -.00000295  00000-0 -41883-6 0  9999,2 53866  53.2163 273.2218 0001320  87.8566 272.2578 15.08836635 47279,6917.891,95.438,540.669,538.843,0.0
53866.0,STARLINK-4762,PAYLOAD,2023-07-20 12:30:19,15.08836356,0.0001472,53.2169,268.1613,80.5483,279.5676,0.00034264,5.169e-05,0.0,0 STARLINK-4762,1 53866U 22114BA  23201.52105809  .00005169  00000-0  34264-3 0  9999,2 53866  53.2169 268.1613 0001472  80.5483 279.5676 15.08836356 47441,6917.892,95.438,540.775,538.738,0.0
53866.0,STARLINK-4762,PAYLOAD,2023-07-21 13:56:28,15.08849266,0.000127,53.2156,263.4046,87.0225,273.0913,0.00026167,3.88e-05,0.0,0 STARLINK-4762,1 53866U 22114BA  23202.58088980  .00003880  00000-0  26167-3 0  9997,2 53866  53.2156 263.4046 0001270  87.0225 273.0913 15.08849266 47602,6917.852,95.437,540.596,538.838,0.0
53866.0,STARLINK-4762,PAYLOAD,2023-07-24 11:53:27,15.08834428,0.0001243,53.2161,250.3194,80.0114,280.1019,7.2081e-05,8.59e-06,0.0,0 STARLINK-4762,1 53866U 22114BA  23205.49545800  .00000859  00000-0  72081-4 0  9999,2 53866  53.2161 250.3194 0001243  80.0114 280.1019 15.08834428 48585,6917.897,95.438,540.622,538.903,0.0
53866.0,STARLINK-4762,PAYLOAD,2023-07-25 11:44:14,15.08844807,0.0001314,53.2155,245.8575,96.8242,263.29,-4.4691e-05,-9.99e-06,0.0,0 STARLINK-4762,1 53866U 22114BA  23206.48905515 -.00000999  00000-0 -44691-4 0  9995,2 53866  53.2155 245.8575 0001314  96.8242 263.2900 15.08844807 48736,6917.866,95.437,540.64,538.822,0.0
53866.0,STARLINK-4762,PAYLOAD,2023-07-26 09:59:38,15.08839283,0.0001093,53.2149,241.696,92.9277,267.184,0.00011573,1.554e-05,0.0,0 STARLINK-4762,1 53866U 22114BA  23207.41641553  .00001554  00000-0  11573-3 0  9996,2 53866  53.2149 241.6960 0001093  92.9277 267.1840 15.08839283 48873,6917.883,95.438,540.504,538.991,0.0
53866.0,STARLINK-4762,PAYLOAD,2023-07-26 19:31:57,15.08842057,0.0001164,53.2154,239.9115,90.0186,270.0939,0.00012283,1.668e-05,0.0,0 STARLINK-4762,1 53866U 22114BA  23207.81385421  .00001668  00000-0  12283-3 0  9994,2 53866  53.2154 239.9115 0001164  90.0186 270.0939 15.08842057 48930,6917.874,95.437,540.544,538.934,0.0
53866.0,STARLINK-4762,PAYLOAD,2023-07-27 01:53:29,15.08843095,0.0001155,53.2152,238.7232,87.3014,272.8111,9.6523e-05,1.249e-05,0.0,0 STARLINK-4762,1 53866U 22114BA  23208.07881459  .00001249  00000-0  96523-4 0  9990,2 53866  53.2152 238.7232 0001155  87.3014 272.8111 15.08843095 48434,6917.871,95.437,540.535,538.937,0.0
53866.0,STARLINK-4762,PAYLOAD,2023-07-27 08:15:01,15.08844679,0.0001159,53.2151,237.5338,87.0658,273.0467,0.00010356,1.361e-05,0.0,0 STARLINK-4762,1 53866U 22114BA  23208.34377303  .00001361  00000-0  10356-3 0  9992,2 53866  53.2151 237.5338 0001159  87.0658 273.0467 15.08844679 49013,6917.866,95.437,540.533,538.929,0.0
53866.0,STARLINK-4762,PAYLOAD,2023-07-27 19:22:44,15.08841718,0.0001127,53.2151,235.452,87.7958,272.3163,7.0159e-05,8.29e-06,0.0,0 STARLINK-4762,1 53866U 22114BA  23208.80745478  .00000829  00000-0  70159-4 0  9991,2 53866  53.2151 235.4520 0001127  87.7958 272.3163 15.08841718 49081,6917.875,95.437,540.52,538.96,0.0
